     2.100          NAVIGATION                              RINEX VERSION / TYPE
fic2rin                                 02/24/2018 00:09:09 PGM / RUN BY / DATE
                                                            END OF HEADER
28 18  2 23  8  0  0.0  .691289547831D-03  .341060513165D-11  .000000000000D+00
     .570000000000D+02  .671875000000D+01  .416160191885D-08  .479418969496D+00
     .255182385445D-06  .197023772635D-01  .471621751785D-05  .515367266655D+04
     .460800000000D+06 -.201165676117D-06 -.301052273942D+01 -.106170773506D-06
     .986948802265D+00  .303968750000D+03 -.152576365311D+01 -.843356557757D-08
    -.521450291926D-10  .100000000000D+01  .198900000000D+04  .000000000000D+00
     .340000000000D+01  .000000000000D+00 -.111758708954D-07  .570000000000D+02
     .453606000000D+06  .400000000000D+01
29 18  2 23  8  0  0.0  .492156483233D-03 -.568434188608D-11  .000000000000D+00
     .400000000000D+02 -.641562500000D+02  .399123767964D-08  .100687380063D+01
    -.352598726749D-05  .530825578608D-03  .837817788124D-05  .515373834419D+04
     .460800000000D+06  .521540641785D-07 -.198898545988D+01  .540167093277D-07
     .983200311679D+00  .227968750000D+03  .743798768261D+00 -.793854495798D-08
    -.114290474943D-10  .100000000000D+01  .198900000000D+04  .000000000000D+00
     .240000000000D+01  .000000000000D+00 -.102445483208D-07  .400000000000D+02
     .453606000000D+06  .400000000000D+01
30 18  2 23  8  0  0.0  .100983306766D-03 -.352429196937D-11  .000000000000D+00
     .890000000000D+02  .763437500000D+02  .480805741775D-08 -.308744865839D+01
     .402890145779D-05  .305995217059D-02  .805594027042D-05  .515377145958D+04
     .460800000000D+06 -.316649675369D-07  .219422135909D+01 -.316649675369D-07
     .944919237530D+00  .215843750000D+03 -.313237705528D+01 -.821641367518D-08
     .542879755978D-10  .100000000000D+01  .198900000000D+04  .000000000000D+00
     .240000000000D+01  .000000000000D+00  .372529029846D-08  .890000000000D+02
     .453606000000D+06  .400000000000D+01
31 18  2 23  8  0  0.0  .139820855111D-03 -.261479726760D-11  .000000000000D+00
     .680000000000D+02  .992500000000D+02  .437839666351D-08  .281025128490D+01
     .506639480591D-05  .880895939190D-02  .893138349056D-05  .515361657715D+04
     .460800000000D+06 -.484287738800D-07  .217137454466D+01  .465661287308D-07
     .963948990013D+00  .209875000000D+03 -.149907592824D+00 -.797390357366D-08
     .182150444440D-10  .100000000000D+01  .198900000000D+04  .000000000000D+00
     .240000000000D+01  .000000000000D+00 -.135041773319D-07  .680000000000D+02
     .453606000000D+06  .400000000000D+01
32 18  2 23  8  0  0.0 -.531368888915D-03  .136424205266D-11  .000000000000D+00
     .440000000000D+02  .106875000000D+02  .464983654150D-08  .404997531167D+00
     .534579157829D-06  .173006369732D-02  .958144664764D-05  .515363794136D+04
     .460800000000D+06  .502914190292D-07  .108539271743D+01  .000000000000D+00
     .957206334755D+00  .192031250000D+03 -.268849007207D+01 -.808569394447D-08
    -.414302971667D-09  .100000000000D+01  .198900000000D+04  .000000000000D+00
     .240000000000D+01  .000000000000D+00  .465661287308D-09  .440000000000D+02
     .453606000000D+06  .400000000000D+01
13 18  2 23  7 59 44.0 -.956091098487D-04  .000000000000D+00  .000000000000D+00
     .100000000000D+01  .152500000000D+02  .424446251319D-08 -.185284335711D+01
     .715255737305D-06  .367659539916D-02  .982359051704D-05  .515366154861D+04
     .460784000000D+06  .689178705215D-07  .121120414477D+01  .124797224998D-06
     .968536354398D+00  .194968750000D+03  .162450205515D+01 -.784711257802D-08
    -.337156901081D-09  .100000000000D+01  .198900000000D+04  .000000000000D+00
     .240000000000D+01  .000000000000D+00 -.111758708954D-07  .100000000000D+01
     .457476000000D+06  .400000000000D+01
14 18  2 23  7 59 44.0 -.943318009377D-04 -.454747350886D-12  .000000000000D+00
     .430000000000D+02  .136562500000D+02  .458554814934D-08 -.742491889413D+00
     .689178705215D-06  .937114271801D-02  .992603600025D-05  .515373904228D+04
     .460784000000D+06 -.447034835815D-07  .116992290506D+01  .104308128357D-06
     .961102585918D+00  .189656250000D+03 -.195881973360D+01 -.817105464294D-08
    -.407516974718D-09  .100000000000D+01  .198900000000D+04  .000000000000D+00
     .240000000000D+01  .000000000000D+00 -.977888703346D-08  .430000000000D+02
     .457566000000D+06  .400000000000D+01
26 18  2 23  7 59 44.0 -.240514986217D-03  .135287336889D-10  .000000000000D+00
     .480000000000D+02  .246562500000D+02  .477841332581D-08  .147102025356D+01
     .129826366901D-05  .269892893266D-02  .377930700779D-05  .515361540985D+04
     .460784000000D+06 -.298023223877D-07 -.311255130127D+01  .149011611938D-07
     .956939614067D+00  .303875000000D+03  .299257989411D-01 -.847856745208D-08
    -.214294640518D-11  .100000000000D+01  .198900000000D+04  .000000000000D+00
     .240000000000D+01  .000000000000D+00  .745058059692D-08  .480000000000D+02
     .457566000000D+06  .400000000000D+01
13 18  2 23  9 59 44.0 -.956091098487D-04  .000000000000D+00  .000000000000D+00
     .200000000000D+01  .731250000000D+01  .441018370185D-08 -.802865061478D+00
     .443309545517D-06  .367603532504D-02  .976212322712D-05  .515365988731D+04
     .467984000000D+06 -.651925802231D-07  .121114681009D+01  .316649675369D-07
     .968533361268D+00  .192687500000D+03  .162471091011D+01 -.799676166865D-08
    -.310370071016D-09  .100000000000D+01  .198900000000D+04  .000000000000D+00
     .240000000000D+01  .000000000000D+00 -.111758708954D-07  .200000000000D+01
     .460806000000D+06  .400000000000D+01
14 18  2 23  9 59 44.0 -.943350605667D-04 -.454747350886D-12  .000000000000D+00
     .440000000000D+02  .177500000000D+02  .461126350621D-08  .307691811616D+00
     .100024044514D-05  .937143270858D-02  .979937613010D-05  .515373975182D+04
     .467984000000D+06 -.596046447754D-07  .116986394800D+01  .502914190292D-07
     .961099638138D+00  .193343750000D+03 -.195886251956D+01 -.818641242551D-08
    -.412874340731D-09  .100000000000D+01  .198900000000D+04  .000000000000D+00
     .240000000000D+01  .000000000000D+00 -.977888703346D-08  .440000000000D+02
     .460806000000D+06  .400000000000D+01
26 18  2 23  9 59 44.0 -.240417197347D-03  .135287336889D-10  .000000000000D+00
     .490000000000D+02  .207812500000D+02  .475376944215D-08  .252104595943D+01
     .110827386379D-05  .269863219000D-02  .391900539398D-05  .515361653328D+04
     .467984000000D+06 -.484287738800D-07 -.311261241906D+01 -.223517417908D-07
     .956939656492D+00  .301968750000D+03  .301182458144D-01 -.845892377670D-08
     .928610108910D-11  .100000000000D+01  .198900000000D+04  .000000000000D+00
     .240000000000D+01  .000000000000D+00  .745058059692D-08  .490000000000D+02
     .460806000000D+06  .400000000000D+01
 1 18  2 23 10  0  0.0 -.304090790451D-04 -.216004991671D-11  .000000000000D+00
     .700000000000D+02 -.336562500000D+02  .435768151493D-08 -.153094941974D+01
    -.179558992386D-05  .738466368057D-02  .938214361668D-05  .515367420197D+04
     .468000000000D+06  .137835741043D-06 -.996008049745D+00 -.521540641785D-07
     .970130462582D+00  .201875000000D+03  .612221301977D+00 -.788068540504D-08
     .435732435719D-09  .100000000000D+01  .198900000000D+04  .000000000000D+00
     .240000000000D+01  .000000000000D+00  .558793544769D-08  .700000000000D+02
     .460806000000D+06  .400000000000D+01
 2 18  2 23 10  0  0.0  .192342791706D-03 -.106865627458D-10  .000000000000D+00
     .101000000000D+03 -.186875000000D+02  .491520473801D-08 -.115327263126D+01
    -.590458512306D-06  .178036860889D-01  .854954123497D-05  .515368766022D+04
     .468000000000D+06  .372529029846D-07 -.105516905374D+01  .406056642532D-06
     .949138941344D+00  .210625000000D+03 -.189035517773D+01 -.831070331701D-08
     .297512392585D-09  .100000000000D+01  .198900000000D+04  .000000000000D+00
     .340000000000D+01  .000000000000D+00 -.204890966415D-07  .101000000000D+03
     .460806000000D+06  .400000000000D+01
 3 18  2 23 10  0  0.0  .151610001922D-04  .784439180279D-11  .000000000000D+00
     .840000000000D+02 -.119375000000D+02  .487841749138D-08 -.241853951052D+01
    -.556930899620D-06  .119617511518D-02  .713765621185D-05  .515354535294D+04
     .468000000000D+06  .130385160446D-07  .466625619230D-01 -.689178705215D-07
     .961076859040D+00  .239437500000D+03  .462645506288D+00 -.817962642856D-08
     .660741808263D-10  .100000000000D+01  .198900000000D+04  .000000000000D+00
     .240000000000D+01  .000000000000D+00  .232830643654D-08  .840000000000D+02
     .460806000000D+06  .400000000000D+01
 4 18  2 23 10  0  0.0  .401795841753D-04  .284217094304D-11  .000000000000D+00
     .320000000000D+02  .132187500000D+02  .548129974671D-08  .187571155208D+01
     .650063157082D-06  .959970639087D-02  .436417758465D-05  .515368035507D+04
     .468000000000D+06 -.214204192162D-06 -.306785782416D+01 -.150874257088D-06
     .980176890108D+00  .306406250000D+03  .896490313209D+00 -.821855662159D-08
     .750031241812D-11  .100000000000D+01  .198900000000D+04  .000000000000D+00
     .240000000000D+01  .630000000000D+02 -.195577740669D-07  .320000000000D+02
     .460806000000D+06  .400000000000D+01
 5 18  2 23 10  0  0.0 -.136205926538D-04  .909494701773D-12  .000000000000D+00
     .560000000000D+02 -.160312500000D+02  .524700427307D-08  .144405094183D+01
    -.640749931335D-06  .527535157744D-02  .702403485775D-05  .515364439201D+04
     .468000000000D+06 -.447034835815D-07  .261287058283D-01  .156462192535D-06
     .947979368106D+00  .239750000000D+03  .620724762009D+00 -.844820904467D-08
     .328585115460D-10  .100000000000D+01  .198900000000D+04  .000000000000D+00
     .240000000000D+01  .000000000000D+00 -.107102096081D-07  .560000000000D+02
     .460806000000D+06  .400000000000D+01
